APRIZESAT 2             
1 28366U 04025A   26187.90636044  .00000205  00000+0  76637-4 0  9991
2 28366  98.1033 352.7721 0105353 189.8588 170.0535 14.38044829154477
SAUDICOMSAT 1           
1 28369U 04025D   26187.95251036  .00000307  00000+0  81477-4 0  9994
2 28369  98.5772 198.6174 0031365 324.8890  35.0239 14.55489430167005
SAUDICOMSAT 2           
1 28370U 04025E   26187.99897851  .00000180  00000+0  58288-4 0  9994
2 28370  98.6639 200.8053 0055064 198.5745 161.3439 14.49991534162971
APRIZESAT 1             
1 28372U 04025G   26187.93722429  .00000231  00000+0  68865-4 0  9997
2 28372  98.6305 199.2002 0045799  95.1689 265.4734 14.51788668164770
NANOSAT-1               
1 28493U 04049B   26188.17876146  .00000921  00000+0  12844-3 0  9991
2 28493  98.2301 325.3314 0003196 212.5909 147.5105 14.80200097158401
SAUDICOMSAT 7           
1 31119U 07012C   26188.17774058  .00000480  00000+0  94792-4 0  9995
2 31119  98.3791 162.7197 0056642 132.9031 227.6947 14.66130803 25364
SAUDICOMSAT 6           
1 31121U 07012E   26187.86165170  .00000399  00000+0  86135-4 0  9993
2 31121  98.4109 155.7456 0070364 265.5327  93.7833 14.62579457 23068
SAUDICOMSAT 5           
1 31124U 07012H   26187.91874191  .00000650  00000+0  12017-3 0  9999
2 31124  98.3502 163.1982 0048615  64.2851 296.3361 14.68184411 26499
SAUDICOMSAT 3           
1 31125U 07012J   26187.91304544  .00000768  00000+0  13340-3 0  9990
2 31125  98.3155 163.7394 0038877 351.7392   8.3169 14.70740625 27722
SAUDICOMSAT 4           
1 31127U 07012L   26187.89985755  .00000388  00000+0  80988-4 0  9999
2 31127  98.3995 160.8736 0062973 195.6835 164.2418 14.64530304 24174
APRIZESAT 4             
1 35684U 09041D   26188.14924469  .00000587  00000+0  76744-4 0  9995
2 35684  98.1405 263.8672 0041924 256.3784 103.2759 14.83906300914324
APRIZESAT 3             
1 35686U 09041F   26188.16101992  .00001196  00000+0  10783-3 0  9994
2 35686  98.2083 342.3446 0061435   2.2861 357.8628 14.96293216919364
S-NET D                 
1 43186U 18014G   26188.18738909  .00003248  00000+0  16836-3 0  9999
2 43186  97.5338  92.8533 0006704 319.5238  40.5495 15.16869594461795
S-NET B                 
1 43187U 18014H   26187.80342396  .00004112  00000+0  21241-3 0  9996
2 43187  97.5346  92.4588 0007266 314.9428  45.1215 15.16837136461737
S-NET A                 
1 43188U 18014J   26187.79035547  .00003604  00000+0  18642-3 0  9998
2 43188  97.5355  92.6586 0007169 315.9615  44.1046 15.16875158461736
S-NET C                 
1 43189U 18014K   26187.80740213  .00004116  00000+0  21262-3 0  9995
2 43189  97.5371  92.7531 0008355 305.2688  54.7762 15.16828330460287
SALSAT                  
1 46495U 20068K   26187.96288697  .00005977  00000+0  20799-3 0  9990
2 46495  97.8858 192.2352 0008388 224.1445 135.9125 15.30092809318384
OOV-CUBE (TUBSAT-30)    
1 60240U 24128F   26187.41788602  .00002062  00000+0  16592-3 0  9994
2 60240  61.9939 158.5121 0042205 138.0070 222.4270 15.02848993109004
LPNTSAT-001 (IOD-1)     
1 68408U 26065A   26187.97634906  .00002137  00000+0  10621-3 0  9998
2 68408  97.3994  68.0659 0014812 298.4631  61.5110 15.18641368 15263
